{
  "type": "FeatureCollection",
  "features": [
    {
      "type": "Feature",
      "properties": {
        "norad_id": 37836,
        "name": "EUTELSAT 16A",
        "group": "eutelsat",
        "lat": -0.011474857949869363,
        "lon": -11.09216234624364,
        "alt_km": 35784.783435614925,
        "timestamp": "2025-12-09T16:56:36.251607+00:00",
        "meta_object_name": "EUTELSAT 16A",
        "meta_object_id": "2011-057A",
        "meta_epoch": "2025-12-09T06:42:38.423232",
        "meta_mean_motion": 1.00270945,
        "meta_eccentricity": 0.0005945,
        "meta_inclination": 0.0583,
        "meta_ra_of_asc_node": 1.4561,
        "meta_arg_of_pericenter": 260.8317,
        "meta_mean_anomaly": 292.6449,
        "meta_ephemeris_type": 0,
        "meta_classification_type": "U",
        "meta_norad_cat_id": 37836,
        "meta_element_set_no": 999,
        "meta_rev_at_epoch": 542,
        "meta_bstar": 0,
        "meta_mean_motion_dot": 1.06e-06,
        "meta_mean_motion_ddot": 0,
        "tle_line1": "1 37836U 11057A   25343.27961138  .00000106  00000+0  00000+0 0  9990",
        "tle_line2": "2 37836   0.0583   1.4561 0005945 260.8317 292.6449  1.00270945  5427"
      },
      "geometry": {
        "type": "Point",
        "coordinates": [
          -11.09216234624364,
          -0.011474857949869363
        ]
      }
    },
    {
      "type": "Feature",
      "properties": {
        "norad_id": 38992,
        "name": "EUTELSAT 21B",
        "group": "eutelsat",
        "lat": -0.0011877668834638026,
        "lon": -5.526848386087061,
        "alt_km": 35785.61594943605,
        "timestamp": "2025-12-09T16:56:36.251619+00:00",
        "meta_object_name": "EUTELSAT 21B",
        "meta_object_id": "2012-062B",
        "meta_epoch": "2025-12-09T06:42:38.423232",
        "meta_mean_motion": 1.00270949,
        "meta_eccentricity": 0.0003261,
        "meta_inclination": 0.0663,
        "meta_ra_of_asc_node": 358.4299,
        "meta_arg_of_pericenter": 268.7854,
        "meta_mean_anomaly": 293.3137,
        "meta_ephemeris_type": 0,
        "meta_classification_type": "U",
        "meta_norad_cat_id": 38992,
        "meta_element_set_no": 999,
        "meta_rev_at_epoch": 4792,
        "meta_bstar": 0,
        "meta_mean_motion_dot": 1.32e-06,
        "meta_mean_motion_ddot": 0,
        "tle_line1": "1 38992U 12062B   25343.27961138  .00000132  00000+0  00000+0 0  9990",
        "tle_line2": "2 38992   0.0663 358.4299 0003261 268.7854 293.3137  1.00270949 47922"
      },
      "geometry": {
        "type": "Point",
        "coordinates": [
          -5.526848386087061,
          -0.0011877668834638026
        ]
      }
    },
    {
      "type": "Feature",
      "properties": {
        "norad_id": 39020,
        "name": "EUTELSAT 70B",
        "group": "eutelsat",
        "lat": 0.07641490145262654,
        "lon": 43.37566939628096,
        "alt_km": 35803.525459415054,
        "timestamp": "2025-12-09T16:56:36.251635+00:00",
        "meta_object_name": "EUTELSAT 70B",
        "meta_object_id": "2012-069A",
        "meta_epoch": "2025-12-09T10:29:02.932800",
        "meta_mean_motion": 1.00271487,
        "meta_eccentricity": 0.000437,
        "meta_inclination": 0.0646,
        "meta_ra_of_asc_node": 338.3606,
        "meta_arg_of_pericenter": 264.9029,
        "meta_mean_anomaly": 62.9446,
        "meta_ephemeris_type": 0,
        "meta_classification_type": "U",
        "meta_norad_cat_id": 39020,
        "meta_element_set_no": 999,
        "meta_rev_at_epoch": 4760,
        "meta_bstar": 0,
        "meta_mean_motion_dot": -4.1e-07,
        "meta_mean_motion_ddot": 0,
        "tle_line1": "1 39020U 12069A   25343.43683950 -.00000041  00000+0  00000+0 0  9991",
        "tle_line2": "2 39020   0.0646 338.3606 0004370 264.9029  62.9446  1.00271487 47605"
      },
      "geometry": {
        "type": "Point",
        "coordinates": [
          43.37566939628096,
          0.07641490145262654
        ]
      }
    },
    {
      "type": "Feature",
      "properties": {
        "norad_id": 39122,
        "name": "EUTELSAT 117 WEST A",
        "group": "eutelsat",
        "lat": -0.025307197767313987,
        "lon": -143.9876624449152,
        "alt_km": 35777.121499283545,
        "timestamp": "2025-12-09T16:56:36.251648+00:00",
        "meta_object_name": "EUTELSAT 117 WEST A",
        "meta_object_id": "2013-012A",
        "meta_epoch": "2025-12-09T12:18:58.415040",
        "meta_mean_motion": 1.00270744,
        "meta_eccentricity": 0.0003068,
        "meta_inclination": 0.0128,
        "meta_ra_of_asc_node": 348.6462,
        "meta_arg_of_pericenter": 271.9802,
        "meta_mean_anomaly": 245.8171,
        "meta_ephemeris_type": 0,
        "meta_classification_type": "U",
        "meta_norad_cat_id": 39122,
        "meta_element_set_no": 999,
        "meta_rev_at_epoch": 4653,
        "meta_bstar": 0,
        "meta_mean_motion_dot": -1e-07,
        "meta_mean_motion_ddot": 0,
        "tle_line1": "1 39122U 13012A   25343.51317610 -.00000010  00000+0  00000+0 0  9995",
        "tle_line2": "2 39122   0.0128 348.6462 0003068 271.9802 245.8171  1.00270744 46530"
      },
      "geometry": {
        "type": "Point",
        "coordinates": [
          -143.9876624449152,
          -0.025307197767313987
        ]
      }
    },
    {
      "type": "Feature",
      "properties": {
        "norad_id": 39163,
        "name": "EUTELSAT 7B",
        "group": "eutelsat",
        "lat": -0.042228874672216046,
        "lon": -20.149597443948057,
        "alt_km": 35768.78137222286,
        "timestamp": "2025-12-09T16:56:36.251661+00:00",
        "meta_object_name": "EUTELSAT 7B",
        "meta_object_id": "2013-022A",
        "meta_epoch": "2025-12-09T06:50:38.879808",
        "meta_mean_motion": 1.00271591,
        "meta_eccentricity": 0.0004564,
        "meta_inclination": 0.0709,
        "meta_ra_of_asc_node": 14.2724,
        "meta_arg_of_pericenter": 300.205,
        "meta_mean_anomaly": 233.45,
        "meta_ephemeris_type": 0,
        "meta_classification_type": "U",
        "meta_norad_cat_id": 39163,
        "meta_element_set_no": 999,
        "meta_rev_at_epoch": 4605,
        "meta_bstar": 0,
        "meta_mean_motion_dot": 5e-07,
        "meta_mean_motion_ddot": 0,
        "tle_line1": "1 39163U 13022A   25343.28517222  .00000050  00000+0  00000+0 0  9999",
        "tle_line2": "2 39163   0.0709  14.2724 0004564 300.2050 233.4500  1.00271591 46057"
      },
      "geometry": {
        "type": "Point",
        "coordinates": [
          -20.149597443948057,
          -0.042228874672216046
        ]
      }
    },
    {
      "type": "Feature",
      "properties": {
        "norad_id": 39612,
        "name": "EXPRESS-AT1",
        "group": "eutelsat",
        "lat": 0.02219858515786646,
        "lon": 28.83303737292628,
        "alt_km": 35788.87321529091,
        "timestamp": "2025-12-09T16:56:36.251674+00:00",
        "meta_object_name": "EXPRESS-AT1",
        "meta_object_id": "2014-010A",
        "meta_epoch": "2025-12-09T12:19:38.567712",
        "meta_mean_motion": 1.00270386,
        "meta_eccentricity": 5.8e-05,
        "meta_inclination": 0.0122,
        "meta_ra_of_asc_node": 284.3881,
        "meta_arg_of_pericenter": 276.1899,
        "meta_mean_anomaly": 118.8303,
        "meta_ephemeris_type": 0,
        "meta_classification_type": "U",
        "meta_norad_cat_id": 39612,
        "meta_element_set_no": 999,
        "meta_rev_at_epoch": 4291,
        "meta_bstar": 0,
        "meta_mean_motion_dot": 8.1e-07,
        "meta_mean_motion_ddot": 0,
        "tle_line1": "1 39612U 14010A   25343.51364083  .00000081  00000+0  00000+0 0  9991",
        "tle_line2": "2 39612   0.0122 284.3881 0000580 276.1899 118.8303  1.00270386 42914"
      },
      "geometry": {
        "type": "Point",
        "coordinates": [
          28.83303737292628,
          0.02219858515786646
        ]
      }
    },
    {
      "type": "Feature",
      "properties": {
        "norad_id": 39613,
        "name": "EXPRESS-AT2",
        "group": "eutelsat",
        "lat": 0.01911676445683481,
        "lon": 112.7038993821183,
        "alt_km": 35792.48611319537,
        "timestamp": "2025-12-09T16:56:36.251686+00:00",
        "meta_object_name": "EXPRESS-AT2",
        "meta_object_id": "2014-010B",
        "meta_epoch": "2025-12-09T12:31:36.194016",
        "meta_mean_motion": 1.00272381,
        "meta_eccentricity": 0.0001562,
        "meta_inclination": 0.0192,
        "meta_ra_of_asc_node": 313.9794,
        "meta_arg_of_pericenter": 331.6733,
        "meta_mean_anomaly": 120.6248,
        "meta_ephemeris_type": 0,
        "meta_classification_type": "U",
        "meta_norad_cat_id": 39613,
        "meta_element_set_no": 999,
        "meta_rev_at_epoch": 4259,
        "meta_bstar": 0,
        "meta_mean_motion_dot": -2.79e-06,
        "meta_mean_motion_ddot": 0,
        "tle_line1": "1 39613U 14010B   25343.52194669 -.00000279  00000+0  00000+0 0  9994",
        "tle_line2": "2 39613   0.0192 313.9794 0001562 331.6733 120.6248  1.00272381 42599"
      },
      "geometry": {
        "type": "Point",
        "coordinates": [
          112.7038993821183,
          0.01911676445683481
        ]
      }
    }
  ]
}